IRIDIUM 155             
1 43573U 18061E   22172.62349856  .00000203  00000+0  65393-4 0  9999
2 43573  86.3957 305.3878 0002559  92.3362 267.8127 14.34222423204581
IRIDIUM 154             
1 43574U 18061F   22172.60447073  .00000193  00000+0  61906-4 0  9992
2 43574  86.3962 305.4596 0002042  99.9437 260.1990 14.34218757204634
IRIDIUM 163             
1 43575U 18061G   22172.44591864  .00000204  00000+0  65654-4 0  9990
2 43575  86.3958 305.4858 0001935  85.8172 274.3245 14.34220512204587
IRIDIUM 156             
1 43576U 18061H   22172.62984830  .00000199  00000+0  63979-4 0  9991
2 43576  86.3957 305.4143 0002297  85.8599 274.2859 14.34219672204607
IRIDIUM 164             
1 43577U 18061J   22172.61081593  .00000202  00000+0  64992-4 0  9996
2 43577  86.3959 305.4404 0001970  96.5723 263.5697 14.34221352204648
IRIDIUM 159             
1 43578U 18061K   22172.43956748  .00000208  00000+0  67222-4 0  9995
2 43578  86.3958 305.4795 0002063  97.5302 262.6128 14.34219859204580
IRIDIUM 180             
1 43922U 19002A   22172.57859949  .00000172  00000+0  54486-4 0  9992
2 43922  86.3984 242.2737 0001722 102.6540 257.4849 14.34221288180213
IRIDIUM 176             
1 43923U 19002B   22172.47509078  .00000582  00000+0  88408-4 0  9993
2 43923  86.6119 242.3521 0002498  95.6788 264.4714 14.72259254184922
IRIDIUM 168             
1 43924U 19002C   22172.57225067  .00000170  00000+0  53782-4 0  9998
2 43924  86.3988 242.3126 0002170  99.4380 260.7061 14.34222941180192
IRIDIUM 173             
1 43925U 19002D   22172.55956972  .00000172  00000+0  54225-4 0  9998
2 43925  86.3984 242.2662 0002130  96.9703 263.1735 14.34220649180176
IRIDIUM 169             
1 43926U 19002E   22172.54574942  .00000262  00000+0  79076-4 0  9992
2 43926  86.4224 273.8734 0006807  98.0820 262.1150 14.38603959180806
IRIDIUM 172             
1 43927U 19002F   22172.55322768  .00000176  00000+0  55720-4 0  9995
2 43927  86.3984 242.2723 0002073  98.5161 261.6270 14.34220708180182
IRIDIUM 175             
1 43928U 19002G   22172.46888260  .00000574  00000+0  87103-4 0  9992
2 43928  86.6121 242.1852 0002470  99.4687 260.6809 14.72263109184911
IRIDIUM 171             
1 43929U 19002H   22171.55744970  .00000188  00000+0  59927-4 0  9995
2 43929  86.3992 242.8325 0002199  99.8506 260.2939 14.34221264180032
IRIDIUM 170             
1 43930U 19002J   22172.48125656  .00000573  00000+0  86908-4 0  9991
2 43930  86.6119 242.3549 0002689  98.8628 261.2893 14.72261893184936
IRIDIUM 167             
1 43931U 19002K   22172.45808375  .00000175  00000+0  55303-4 0  9998
2 43931  86.3982 242.3214 0001935 101.8992 258.2421 14.34221595180160
